SCD 1                   
1 22490U 93009B   26183.13244091  .00000436  00000+0  68291-4 0  9994
2 22490  24.9688 115.2955 0041634 296.2972  85.9552 14.46124624763283
TECHSAT 1B (GO-32)      
1 25397U 98043D   26183.23686333  .00000060  00000+0  46029-4 0  9994
2 25397  99.0074 176.3754 0001758 135.7295 224.4024 14.24431320453478
SCD 2                   
1 25504U 98060A   26183.16802139  .00000387  00000+0  57216-4 0  9991
2 25504  24.9966 339.7744 0016536 281.7483 248.9024 14.45531375462497
DLR-TUBSAT              
1 25757U 99029B   26183.31148592  .00000106  00000+0  37885-4 0  9999
2 25757  98.6702 179.3135 0013230 307.2657  52.7330 14.52430737435444
TERRA                   
1 25994U 99068A   26183.22300821  .00000467  00000+0  10391-3 0  9992
2 25994  97.9448 232.1726 0002722 149.3750 284.6419 14.61115325411804
MAROC-TUBSAT            
1 27004U 01056D   26183.28650457 -.00000035  00000+0  13516-4 0  9990
2 27004  99.8089   0.4311 0020606 103.8710  75.6355 13.70263044228251
AQUA                    
1 27424U 02022A   26183.25579660  .00000893  00000+0  18730-3 0  9996
2 27424  98.4285 152.8404 0000695  80.3205  32.0215 14.62181352285471
SHIYAN-1 (SY-1)         
1 28220U 04012A   26183.18725711  .00015404  00000+0  46818-3 0  9996
2 28220  97.8689 262.2336 0004345 335.4967  24.6068 15.34147176213393
AURA                    
1 28376U 04026A   26183.25510905  .00000895  00000+0  19081-3 0  9998
2 28376  98.3424 139.8338 0001184  86.5053 273.6283 14.61352181168417
IRS-P5 (CARTOSAT-1)     
1 28649U 05017A   26183.04331727  .00001362  00000+0  14280-3 0  9998
2 28649  97.5304 205.4339 0002122  62.4499 297.6936 14.91088786146034
SINAH 1                 
1 28893U 05043D   26183.29377196  .00000390  00000+0  83487-4 0  9991
2 28893  98.2880 317.7061 0013527 225.2576 134.7526 14.64168205102737
RESURS-DK 1             
1 29228U 06021A   26183.04052218  .00002406  00000+0  14095-3 0  9997
2 29228  69.9341 301.1035 0006694 284.6167  75.4257 15.13278120104824
ARIRANG-2 (KOMPSAT-2)   
1 29268U 06031A   26183.33381082  .00000166  00000+0  39584-4 0  9990
2 29268  97.8303   7.0470 0015284  30.4382  90.8242 14.64668723 63693
LAPAN-TUBSAT            
1 29709U 07001A   26183.27066800  .00000138  00000+0  22430-4 0  9990
2 29709  98.1340 182.8352 0013026 131.8936 228.3392 14.85963179 53398
HAIYANG-1B              
1 31113U 07010A   26183.17763438  .00000105  00000+0  55632-4 0  9996
2 31113  98.3503 164.4419 0013994 152.1052 208.0884 14.31030676  2788
COSMO-SKYMED 1          
1 31598U 07023A   26183.30666586  .00002268  00000+0  20138-3 0  9992
2 31598  97.8853  15.2902 0001377  83.0057 277.1321 14.97176302 32051
TERRASAR-X              
1 31698U 07026A   26182.61687754  .00000688  00000+0  35949-4 0  9990
2 31698  97.4453 190.1187 0001948  88.1804 271.9654 15.19153219 55415
WORLDVIEW-1 (WV-1)      
1 32060U 07041A   26183.25891796  .00006831  00000+0  28129-3 0  9992
2 32060  97.3897 302.7881 0000977 306.4110  53.7037 15.24433673 45173
YAOGAN-3                
1 32289U 07055A   26183.29626758  .00002769  00000+0  28691-3 0  9998
2 32289  97.8139 213.0250 0001739  83.2837 276.8579 14.90838812  8126
COSMO-SKYMED 2          
1 32376U 07059A   26183.28339897  .00000504  00000+0  69894-4 0  9999
2 32376  97.8889   6.6625 0001320  90.5264 269.6101 14.82158208  4243
RADARSAT-2              
1 32382U 07061A   26183.29145998  .00000234  00000+0  10779-3 0  9994
2 32382  98.5772 190.0080 0001315  83.7161 276.4172 14.29981262968110
CARTOSAT-2A             
1 32783U 08021A   26183.26623384  .00000353  00000+0  54159-4 0  9996
2 32783  97.7625 231.4599 0013245  65.2972 294.9617 14.79259989981032
HUANJING 1A (HJ-1A)     
1 33320U 08041A   26183.26993400  .00001933  00000+0  23742-3 0  9993
2 33320  97.6685 168.5258 0020726  88.5775 271.7814 14.84024561960646
HUANJING 1B (HJ-1B)     
1 33321U 08041B   26183.24590407  .00001039  00000+0  13156-3 0  9997
2 33321  97.6519 171.6286 0037360 132.0964 228.3437 14.83342829960644
GEOEYE 1                
1 33331U 08042A   26183.24943127  .00000539  00000+0  11038-3 0  9991
2 33331  98.1333 256.9965 0004910  26.9811 333.1646 14.64640221952355
THEOS                   
1 33396U 08049A   26183.32821596  .00000097  00000+0  65176-4 0  9995
2 33396  98.5565 240.1200 0001145  80.8915 279.2392 14.20135585920116
COSMO-SKYMED 3          
1 33412U 08054A   26183.28209278  .00003843  00000+0  26017-3 0  9994
2 33412  97.8265  42.1024 0014802 211.2272 148.8077 15.07045511959217
YAOGAN-4                
1 33446U 08061A   26183.27864233  .00001183  00000+0  15115-3 0  9998
2 33446  97.9307 116.6777 0014943  27.0418 333.1571 14.83230619947904
GOSAT (IBUKI)           
1 33492U 09002A   26183.27479761  .00000171  00000+0  38620-4 0  9996
2 33492  98.0905 294.1679 0001255  79.9327 280.2019 14.67538444933678
DEIMOS-1                
1 35681U 09041A   26183.31172044  .00000271  00000+0  47057-4 0  9995
2 35681  97.7417 339.8843 0002433 110.5396 249.6075 14.75251591909118
